C/2025 W1 (Sankovich),e,79.8006,95.8909,250.6439,6845,0.0000017,0.99939069,0.0000,02/17.7328/2025,2000,g  9.7,4.0
# From MPC191592
C/2025 W2 (ATLAS),e,94.7097,90.8459,41.0404,26.95533,0.0070427,0.94608277,1.3111,06/12.0/2026,2000,g 17.9,4.0
# From MPC194197
P/2025 W3 (Kresken),e,9.7407,60.0115,311.4316,2.547034,0.2424666,0.18100551,109.5360,06/12.0/2026,2000,g 17.2,4.0
# From MPC194197
P/2025 W4 (PANSTARRS),e,1.2977,237.0917,172.2965,2.579797,0.2378623,0.21155570,59.5875,06/12.0/2026,2000,g 17.5,4.0
# From MPEC 2026-KB8
C/2025 X1 (PANSTARRS),e,36.9541,95.6314,85.6870,33.70820,0.0050362,0.86151985,359.0819,06/12.0/2026,2000,g 10.2,4.0
# From MPEC 2026-L50
C/2025 Y1 (ATLAS),e,14.5564,166.5505,124.2930,7097,0.0000016,0.99963338,0.0000,10/14.0294/2027,2000,g  6.3,4.0
# From MPEC 2026-L50
P/2025 Y2 (PANSTARRS),e,16.5873,177.4771,344.7188,4.017131,0.1224137,0.24150710,22.8764,06/12.0/2026,2000,g 13.3,4.0
# From MPC194197
C/2025 Y3 (PANSTARRS),h,01/13.7103/2026,89.5484,272.9667,219.3873,1.000610,2.227369,2000,17.0,4.0
# From MPC194197
C/2026 A1 (MAPS),e,144.4951,7.8998,86.3519,171.9823,0.0004370,0.99996668,0.0000,04/04.6001/2026,2000,g 15.6,4.0
# From MPEC 2026-L50
C/2026 A2 (Bok),e,82.3059,206.5891,155.9362,815.8241,0.0000423,0.99762469,0.0000,12/22.3549/2026,2000,g 10.7,4.0
# From MPEC 2026-GD5
C/2026 A3 (PANSTARRS),h,09/27.4534/2027,157.4148,306.9988,238.6328,1.006207,4.820557,2000,9.0,4.0
# From MPEC 2026-L52
C/2026 AZ17 (Bok),e,36.2336,149.9744,146.9125,64.83462,0.0018880,0.96186196,359.6899,06/12.0/2026,2000,g 12.2,4.0
# From MPEC 2026-H88
C/2026 B2 (Sun-Gao),e,59.5795,234.6369,47.2984,512.4840,0.0000850,0.99749408,0.0000,01/10.1155/2026,2000,g  9.7,4.0
# From MPEC 2026-L50
C/2026 B3 (PANSTARRS),e,100.8336,346.2550,205.2205,1182,0.0000242,0.99508138,0.0000,05/05.2185/2027,2000,g  7.7,4.0
# From MPEC 2026-L50
C/2026 C1 (Tsuchinshan),e,99.5861,3.6203,310.7188,18152,0.0000004,0.99993651,0.0000,11/06.9469/2028,2000,g  4.4,4.0
# From MPC194198
P/2026 C2 (PANSTARRS),e,7.4013,190.5600,11.0238,3.552099,0.1472233,0.31426002,354.1237,06/12.0/2026,2000,g 14.9,4.0
# From MPEC 2026-L50
A/2026 E1,e,108.1817,188.3167,344.8424,386.0752,0.0001299,0.99248301,0.0000,05/13.5574/2026,2000,g 12.0,2.0
# From MPEC 2026-K60
C/2026 H1 (PANSTARRS),h,06/13.4658/2026,115.5936,178.7278,349.6485,1.000736,6.083956,2000,9.0,4.0
# From MPEC 2026-L50
C/2026 H2 (Leonard),h,03/17.2380/2026,148.6506,5.4567,111.5368,1.002002,4.546410,2000,10.1,4.0
# From MPEC 2026-K33
C/2026 H3 (Bok),h,05/22.9788/2026,142.5672,352.4962,98.4925,1.003436,7.728232,2000,8.9,4.0
# From MPEC 2026-L50
C/2026 J1 (PANSTARRS),e,73.1156,100.3569,129.5042,25.46177,0.0076713,0.90087737,359.8595,06/12.0/2026,2000,g 14.1,4.0
# From MPEC 2026-L49
C/2026 L1 (PANSTARRS),e,67.2611,130.5048,200.5751,755.3875,0.0000475,0.99353959,0.0000,04/11.2851/2027,2000,g  9.2,4.0
# From MPC191592
1P/Halley,e,162.1791,59.3573,112.2570,17.85833,0.0130600,0.96801898,192.3283,06/12.0/2026,2000,g  5.5,3.2
# From MPC191592
2P/Encke,e,11.3480,334.0195,187.2842,2.217813,0.2984123,0.84729891,287.4175,06/12.0/2026,2000,g 11.5,6.0
# From AJ 76, 1135
3D-A/Biela,e,7.2149,276.6841,192.1509,3.552246,0.1472141,0.76708544,81.9772,06/12.0/2026,2000,g 11.0,6.0
# From AJ 76, 1135
3D-B/Biela,e,7.8793,276.2029,192.2701,3.541293,0.1478977,0.76783693,51.6058,06/12.0/2026,2000,g 11.0,6.0
# From MPC191593
4P/Faye,e,7.9986,192.8886,207.1633,3.831064,0.1314392,0.57585042,228.3753,06/12.0/2026,2000,g  8.0,6.0
# From MPC191593
6P/d'Arrest,e,19.5063,138.9567,178.0334,3.497443,0.1506878,0.61243487,260.7095,06/12.0/2026,2000,g  7.5,16.0
# From MPC194198
7P/Pons-Winnecke,e,21.8787,92.6703,174.3477,3.337408,0.1616554,0.66021228,288.9205,06/12.0/2026,2000,g 10.0,6.0
# From MPC191593
8P/Tuttle,e,54.9806,270.1883,207.4782,5.706676,0.0722985,0.82075221,126.3598,06/12.0/2026,2000,g  8.0,8.0
# From MPC191593
9P/Tempel,e,10.4916,66.8962,184.5538,3.303810,0.1641276,0.46584755,259.9886,06/12.0/2026,2000,g  5.5,10.0
# From MPEC 2026-L50
10P/Tempel,e,12.0273,117.7976,195.4677,3.065004,0.1836782,0.53744332,350.6113,06/12.0/2026,2000,g  5.0,10.0
# From MPC191593
11P/Tempel-Swift-LINEAR,e,14.4305,238.8526,168.0697,3.282319,0.1657422,0.57729595,334.9832,06/12.0/2026,2000,g 17.0,4.0
# From MPC191593
12P/Pons-Brooks,e,74.1623,255.8645,199.0304,17.27227,0.0137303,0.95474097,10.7344,06/12.0/2026,2000,g  5.0,6.0
# From MPC191593
13P/Olbers,e,44.6555,85.8418,64.4341,16.94823,0.0141260,0.93065248,10.0550,06/12.0/2026,2000,g  5.0,6.0
# From MPC191594
14P/Wolf,e,27.9189,202.0088,159.2079,4.255265,0.1122831,0.35643970,348.8788,06/12.0/2026,2000,g  5.5,12.0
# From MPC191594
15P/Finlay,e,6.7843,13.7317,347.8600,3.512043,0.1497492,0.71580956,268.9689,06/12.0/2026,2000,g 12.0,4.0
# From MPC191594
16P/Brooks,e,3.0099,138.8083,245.3692,3.663175,0.1405781,0.48520194,264.5082,06/12.0/2026,2000,g  7.5,10.0
# From MPC191594
17P/Holmes,e,19.0040,326.5959,24.5754,3.643044,0.1417449,0.42603328,275.1259,06/12.0/2026,2000,g 10.0,6.0
# From QJ 19, 80
18D/Perrine-Mrkos,e,17.663,158.451,238.167,3.87854,0.129033,0.5893719,84.131,06/12.0/2026,2000,g 16.0,4.0
# From MPC191594
19P/Borrelly,e,29.3054,74.2150,352.0188,3.608840,0.1437648,0.63751411,228.6608,06/12.0/2026,2000,g  4.5,10.0
# From MPC191594
21P/Giacobini-Zinner,e,32.0660,195.2817,172.9373,3.490040,0.1511675,0.71113311,67.0652,06/12.0/2026,2000,g  9.0,6.0
# From MPC191594
22P/Kopff,e,5.2671,119.9209,165.4600,3.305271,0.1640187,0.59566926,238.7051,06/12.0/2026,2000,g  3.0,10.4
# From MPEC 2026-L50
24P/Schaumasse,e,11.5020,78.2695,58.4867,4.057531,0.1205900,0.70819730,18.6503,06/12.0/2026,2000,g  6.5,14.0
# From MPC191594
26P/Grigg-Skjellerup,e,22.4498,211.5258,2.1081,3.013700,0.1883884,0.64091832,169.4700,06/12.0/2026,2000,g 12.0,16.0
# From MPC194198
28P/Neujmin,e,14.2863,346.4280,347.4072,6.976754,0.0534840,0.77235056,102.7584,06/12.0/2026,2000,g  8.5,6.0
# From MPEC 2026-L50
29P/Schwassmann-Wachmann,e,9.3550,312.4004,51.5089,6.058134,0.0660991,0.04288562,172.4315,06/12.0/2026,2000,g  4.0,4.0
# From MPC191595
30P/Reinmuth,e,8.0537,117.2289,9.5623,3.737181,0.1364231,0.51443324,90.5398,06/12.0/2026,2000,g  9.5,6.0
# From MPC191595
31P/Schwassmann-Wachmann,e,4.5498,114.1116,18.0659,4.228710,0.1133424,0.19372212,286.7387,06/12.0/2026,2000,g  5.0,8.0
# From MPC191595
32P/ComasSola,e,9.9166,54.5316,54.7622,4.556841,0.1013230,0.55526263,79.2590,06/12.0/2026,2000,g  6.5,8.0
# From MPC191595
33P/Daniel,e,22.2929,66.2823,20.2750,4.091651,0.1190847,0.45173589,68.8495,06/12.0/2026,2000,g 10.0,12.0
# From MPC191595
36P/Whipple,e,9.9435,181.8061,201.1845,4.142737,0.1168888,0.26767892,257.4392,06/12.0/2026,2000,g  8.5,6.0
# From MPC191595
37P/Forbes,e,8.9480,314.5406,330.0811,3.461587,0.1530351,0.53232526,93.1890,06/12.0/2026,2000,g 10.5,4.8
# From MPC191596
39P/Oterma,e,1.7242,289.0772,119.4406,6.976568,0.0534861,0.16337229,51.3401,06/12.0/2026,2000,g  7.0,6.0
# From MPEC 2026-L50
40P/Vaisala,e,11.6404,128.8994,52.0699,4.945263,0.0896231,0.63118877,18.9963,06/12.0/2026,2000,g  5.5,12.0
# From MPC191596
41P/Tuttle-Giacobini-Kresak,e,9.2166,140.9777,62.2037,3.087401,0.1816831,0.65996469,248.5015,06/12.0/2026,2000,g 10.0,16.0
# From MPC191596
42P/Neujmin,e,3.9886,150.1550,147.1139,4.879258,0.0914478,0.58403864,13.5423,06/12.0/2026,2000,g 13.0,6.0
# From MPEC 2026-L50
43P/Wolf-Harrington,e,9.3301,243.9713,223.7705,4.327082,0.1094993,0.43549247,34.1123,06/12.0/2026,2000,g  8.0,6.0
# From MPC191596
44P/Reinmuth,e,5.8956,286.4177,57.9498,3.687909,0.1391662,0.42673874,210.5287,06/12.0/2026,2000,g  8.3,6.0
# From MPC191596
45P/Honda-Mrkos-Pajdusakova,e,4.3241,87.6658,327.9692,3.056944,0.1844051,0.81740870,277.7975,06/12.0/2026,2000,g 13.5,8.0
# From MPEC 2026-GD5
47P/Ashbrook-Jackson,e,13.0400,356.8820,357.9142,4.115339,0.1180581,0.31780071,26.8015,06/12.0/2026,2000,g  1.0,11.2
# From MPC194199
48P/Johnson,e,12.2014,110.0642,216.8622,3.501114,0.1504508,0.42639554,70.1479,06/12.0/2026,2000,g 10.0,6.0
# From MPEC 2026-L50
49P/Arend-Rigaux,e,19.0597,118.7899,332.9413,3.569397,0.1461544,0.59886745,62.4693,06/12.0/2026,2000,g 11.3,4.4
# From MPC191597
50P/Arend,e,19.0999,355.1442,49.2973,4.085386,0.1193588,0.52944551,90.7844,06/12.0/2026,2000,g  9.5,6.0
# From MPC191597
51P/Harrington,e,5.4263,83.6574,269.2008,3.705370,0.1381837,0.54266674,186.6946,06/12.0/2026,2000,g 10.0,8.0
# From NK 3014
51P-A/Harrington,e,5.4261,269.2248,83.6132,3.706594,0.1381152,0.54286313,186.2452,06/12.0/2026,2000,g 10.0,8.0
# From MPC191597
52P/Harrington-Abell,e,10.2421,336.7376,139.6596,3.861523,0.1298871,0.54121823,221.9558,06/12.0/2026,2000,g 13.5,6.0
# From MPC194199
53P/VanBiesbroeck,e,6.6084,148.8477,134.3505,5.440217,0.0776747,0.55065193,288.0233,06/12.0/2026,2000,g  7.7,4.8
# From MPC191597
54P/deVico-Swift-NEAT,e,6.1022,358.0705,2.5721,3.791958,0.1334777,0.43070642,85.9860,06/12.0/2026,2000,g 10.0,6.0
# From MPC191597
56P/Slaughter-Burnham,e,8.1555,345.8635,44.2376,5.062649,0.0865242,0.50805911,311.9179,06/12.0/2026,2000,g  8.5,6.0
# From MPC191597
57P/duToit-Neujmin-Delporte,e,2.8573,188.6690,115.1588,3.438714,0.1545646,0.50244312,262.5270,06/12.0/2026,2000,g 12.5,6.0
# From MPC191597
58P/Jackson-Neujmin,e,13.0820,159.0206,200.5706,4.092515,0.1190470,0.66126407,262.9476,06/12.0/2026,2000,g 15.5,6.0
# From MPC191598
59P/Kearns-Kwee,e,9.3577,312.7262,127.7134,4.477359,0.1040330,0.47694861,293.1361,06/12.0/2026,2000,g  7.0,6.0
# From MPC191598
60P/Tsuchinshan,e,3.5797,267.3968,216.9278,3.529765,0.1486228,0.53367825,48.5076,06/12.0/2026,2000,g 11.5,6.0
# From MPC191598
61P/Shajn-Schaldach,e,5.9951,162.9507,221.7161,3.691760,0.1389485,0.42258890,184.5704,06/12.0/2026,2000,g  6.0,10.0
# From MPC191598
62P/Tsuchinshan,e,4.7354,68.6555,47.3646,3.371835,0.1591859,0.62470442,143.2089,06/12.0/2026,2000,g  8.0,10.0
# From MPEC 2026-L50
63P/Wild,e,19.6195,357.7381,168.7391,5.654829,0.0732951,0.65074983,358.2308,06/12.0/2026,2000,g 10.5,6.0
# From MPC191598
64P/Swift-Gehrels,e,8.9549,299.7610,97.3343,4.452541,0.1049040,0.68810371,290.9336,06/12.0/2026,2000,g  9.5,12.0
